{
"type": "FeatureCollection",
"name": "projekt-lsa",
"crs": { "type": "name", "properties": { "name": "urn:ogc:def:crs:OGC:1.3:CRS84" } },
"features": [
{ "type": "Feature", "properties": { "Nr.": 1, "Bezeichnung": "L 1100 / Carl-Ulrich-Str. / Corneliastr.", "Gemarkung": "Bad Wimpfen", "Detail": "49.229776, 9.170315", "Straßenbaulastträger": "RP Stuttgart (Land BW)", "Verkehrsrechtliche Anordnung": "LRA Heilbronn", "Betrieb": "LRA Heilbronn", "Ortsdurchfahrt": "innerorts", "Strat.-Nr.": "1, 2", "Projekte": null, "Kommentar": null, "Anbindung": "Modem", "C-ITS-Bezug": "ja", "Signalbaufirma": null, "STG-Typ": null, "STG-Baujahr": null, "Signalplanung Ing-Büro": null, "Signalplanung-Jahr": null, "ÖPNV": null, "ÖPNV-Prio": null, "Vernetzung": null, "Koordinierung": "nein", "Koordinierung weitere LSA": null, "LSA-Komplexität": "mittel", "Kommentar Akteure": null }, "geometry": { "type": "Point", "coordinates": [ 9.170315, 49.229776 ] } },
{ "type": "Feature", "properties": { "Nr.": 2, "Bezeichnung": "B 27 / L 1100", "Gemarkung": "Offenau", "Detail": "49.236361, 9.171328", "Straßenbaulastträger": "RP Stuttgart (Land BW)", "Verkehrsrechtliche Anordnung": "LRA Heilbronn", "Betrieb": "LRA Heilbronn", "Ortsdurchfahrt": "außerorts", "Strat.-Nr.": "1, 2", "Projekte": null, "Kommentar": null, "Anbindung": "Modem", "C-ITS-Bezug": "ja", "Signalbaufirma": null, "STG-Typ": null, "STG-Baujahr": null, "Signalplanung Ing-Büro": null, "Signalplanung-Jahr": null, "ÖPNV": null, "ÖPNV-Prio": null, "Vernetzung": null, "Koordinierung": "nein", "Koordinierung weitere LSA": null, "LSA-Komplexität": "mittel", "Kommentar Akteure": null }, "geometry": { "type": "Point", "coordinates": [ 9.171328, 49.236361 ] } },
{ "type": "Feature", "properties": { "Nr.": 3, "Bezeichnung": "B 27 / Jagstfelder Str. / K 2029 Kapellenstr.", "Gemarkung": "Offenau", "Detail": "49.236056, 9.181071", "Straßenbaulastträger": "RP Stuttgart (Land BW)", "Verkehrsrechtliche Anordnung": "LRA Heilbronn", "Betrieb": "LRA Heilbronn", "Ortsdurchfahrt": "außerorts", "Strat.-Nr.": "1, 2", "Projekte": "Mobipakt-MIV12", "Kommentar": "Neubau 2030", "Anbindung": "Modem", "C-ITS-Bezug": "ja", "Signalbaufirma": null, "STG-Typ": null, "STG-Baujahr": null, "Signalplanung Ing-Büro": null, "Signalplanung-Jahr": null, "ÖPNV": null, "ÖPNV-Prio": null, "Vernetzung": null, "Koordinierung": "nein", "Koordinierung weitere LSA": null, "LSA-Komplexität": "mittel", "Kommentar Akteure": null }, "geometry": { "type": "Point", "coordinates": [ 9.181071, 49.236056 ] } },
{ "type": "Feature", "properties": { "Nr.": 4, "Bezeichnung": "L 1095 / K 2116 / Rampe B27 \"Amorbach-Knoten\"", "Gemarkung": "Neckarsulm", "Detail": "49.204249, 9.233766", "Straßenbaulastträger": "Stadt Neckarsulm", "Verkehrsrechtliche Anordnung": "Stadt Neckarsulm", "Betrieb": "Stadt Neckarsulm", "Ortsdurchfahrt": "außerorts", "Strat.-Nr.": "3", "Projekte": "Mobipakt-MIV6", "Kommentar": "Umbau 2027", "Anbindung": "Modem", "C-ITS-Bezug": "ja", "Signalbaufirma": null, "STG-Typ": null, "STG-Baujahr": null, "Signalplanung Ing-Büro": "Ingbüro Franz Mayer", "Signalplanung-Jahr": "2014", "ÖPNV": null, "ÖPNV-Prio": null, "Vernetzung": null, "Koordinierung": "nein", "Koordinierung weitere LSA": null, "LSA-Komplexität": "komplex", "Kommentar Akteure": null }, "geometry": { "type": "Point", "coordinates": [ 9.233766, 49.204249 ] } },
{ "type": "Feature", "properties": { "Nr.": 5, "Bezeichnung": "L 1095 / Amorbacher Str.", "Gemarkung": "Neckarsulm", "Detail": "49.208654, 9.249212", "Straßenbaulastträger": "RP Stuttgart (Land BW)", "Verkehrsrechtliche Anordnung": "LRA Heilbronn", "Betrieb": "LRA Heilbronn", "Ortsdurchfahrt": "außerorts", "Strat.-Nr.": "3", "Projekte": null, "Kommentar": null, "Anbindung": "Modem", "C-ITS-Bezug": "ja", "Signalbaufirma": null, "STG-Typ": null, "STG-Baujahr": null, "Signalplanung Ing-Büro": null, "Signalplanung-Jahr": null, "ÖPNV": null, "ÖPNV-Prio": null, "Vernetzung": null, "Koordinierung": "nein", "Koordinierung weitere LSA": null, "LSA-Komplexität": "mittel", "Kommentar Akteure": null }, "geometry": { "type": "Point", "coordinates": [ 9.249212, 49.208654 ] } },
{ "type": "Feature", "properties": { "Nr.": 6, "Bezeichnung": "Ludwigsburger Str. / Klingenberger Str.", "Gemarkung": "Heilbronn", "Detail": "49.127164, 9.188094", "Straßenbaulastträger": "Stadt Heilbronn", "Verkehrsrechtliche Anordnung": "Stadt Heilbronn", "Betrieb": "Stadt Heilbronn", "Ortsdurchfahrt": "innerorts", "Strat.-Nr.": "4", "Projekte": null, "Kommentar": null, "Anbindung": "Zentrale", "C-ITS-Bezug": "nein", "Signalbaufirma": "Yunex", "STG-Typ": null, "STG-Baujahr": null, "Signalplanung Ing-Büro": "Yunex", "Signalplanung-Jahr": null, "ÖPNV": "ja", "ÖPNV-Prio": "ja", "Vernetzung": "VR", "Koordinierung": "nein", "Koordinierung weitere LSA": null, "LSA-Komplexität": "mittel", "Kommentar Akteure": "VVA - Programm " }, "geometry": { "type": "Point", "coordinates": [ 9.188094, 49.127164 ] } },
{ "type": "Feature", "properties": { "Nr.": 7, "Bezeichnung": "Rampe Neckartalstr. / Brackenheimer Str. / Viehweide", "Gemarkung": "Heilbronn", "Detail": "49.125726, 9.193069", "Straßenbaulastträger": "Stadt Heilbronn", "Verkehrsrechtliche Anordnung": "Stadt Heilbronn", "Betrieb": "Stadt Heilbronn", "Ortsdurchfahrt": "innerorts", "Strat.-Nr.": "4", "Projekte": null, "Kommentar": null, "Anbindung": "Zentrale", "C-ITS-Bezug": "nein", "Signalbaufirma": "Yunex", "STG-Typ": null, "STG-Baujahr": null, "Signalplanung Ing-Büro": "Yunex", "Signalplanung-Jahr": null, "ÖPNV": "ja", "ÖPNV-Prio": "ja", "Vernetzung": "VR", "Koordinierung": "ja", "Koordinierung weitere LSA": "Neckartalstr. / Rampe Brackenheimer Str.", "LSA-Komplexität": "komplex", "Kommentar Akteure": null }, "geometry": { "type": "Point", "coordinates": [ 9.193069, 49.125726 ] } },
{ "type": "Feature", "properties": { "Nr.": 8, "Bezeichnung": "Neckartalstr. / Rampe Brackenheimer Str.", "Gemarkung": "Heilbronn", "Detail": "49.124214, 9.193965", "Straßenbaulastträger": "Stadt Heilbronn", "Verkehrsrechtliche Anordnung": "Stadt Heilbronn", "Betrieb": "Stadt Heilbronn", "Ortsdurchfahrt": "innerorts", "Strat.-Nr.": "4", "Projekte": null, "Kommentar": null, "Anbindung": "Zentrale", "C-ITS-Bezug": "nein", "Signalbaufirma": "Yunex", "STG-Typ": null, "STG-Baujahr": null, "Signalplanung Ing-Büro": "Yunex", "Signalplanung-Jahr": null, "ÖPNV": "nein", "ÖPNV-Prio": "nein", "Vernetzung": "VR", "Koordinierung": "ja", "Koordinierung weitere LSA": "Rampe Neckartalstr. / Brackenheimer Str. / Viehweide", "LSA-Komplexität": "mittel", "Kommentar Akteure": null }, "geometry": { "type": "Point", "coordinates": [ 9.193965, 49.124214 ] } },
{ "type": "Feature", "properties": { "Nr.": 9, "Bezeichnung": "B 27 / Kolpingstr. / Brackenheimer Str.", "Gemarkung": "Heilbronn", "Detail": "49.124370, 9.198119", "Straßenbaulastträger": "Stadt Heilbronn", "Verkehrsrechtliche Anordnung": "Stadt Heilbronn", "Betrieb": "Stadt Heilbronn", "Ortsdurchfahrt": "innerorts", "Strat.-Nr.": "4", "Projekte": null, "Kommentar": null, "Anbindung": "Zentrale", "C-ITS-Bezug": "nein", "Signalbaufirma": "Yunex", "STG-Typ": null, "STG-Baujahr": null, "Signalplanung Ing-Büro": "Yunex", "Signalplanung-Jahr": null, "ÖPNV": "ja", "ÖPNV-Prio": "ja", "Vernetzung": null, "Koordinierung": "ja", "Koordinierung weitere LSA": "Sontheimer Str. ", "LSA-Komplexität": "komplex", "Kommentar Akteure": null }, "geometry": { "type": "Point", "coordinates": [ 9.198119, 49.12437 ] } },
{ "type": "Feature", "properties": { "Nr.": 10, "Bezeichnung": "Karl-Wüst-Str. / Obereisesheimer Str.", "Gemarkung": "Heilbronn", "Detail": "49.169057, 9.204328", "Straßenbaulastträger": "Stadt Heilbronn", "Verkehrsrechtliche Anordnung": "Stadt Heilbronn", "Betrieb": "Stadt Heilbronn", "Ortsdurchfahrt": "innerorts", "Strat.-Nr.": "14", "Projekte": null, "Kommentar": "ehemals auch Strategie 5+6", "Anbindung": "Zentrale", "C-ITS-Bezug": "ja", "Signalbaufirma": "Yunex", "STG-Typ": null, "STG-Baujahr": null, "Signalplanung Ing-Büro": "Yunex", "Signalplanung-Jahr": null, "ÖPNV": "ja", "ÖPNV-Prio": "ja", "Vernetzung": "VR", "Koordinierung": "ja", "Koordinierung weitere LSA": "Karl-Wüst-Str./ Albertistraße", "LSA-Komplexität": "mittel", "Kommentar Akteure": null }, "geometry": { "type": "Point", "coordinates": [ 9.204328, 49.169057 ] } },
{ "type": "Feature", "properties": { "Nr.": 11, "Bezeichnung": "L 1100 Neckartalstr. / Buchener Str. (Ersatzknoten für Wimpfener Str.)", "Gemarkung": "Heilbronn", "Detail": "49.178364, 9.201650", "Straßenbaulastträger": "Stadt Heilbronn", "Verkehrsrechtliche Anordnung": "Stadt Heilbronn", "Betrieb": "Stadt Heilbronn", "Ortsdurchfahrt": "außerorts", "Strat.-Nr.": "5, 6", "Projekte": "Neubau IPAI", "Kommentar": "2027", "Anbindung": "Zentrale", "C-ITS-Bezug": "ja", "Signalbaufirma": null, "STG-Typ": null, "STG-Baujahr": null, "Signalplanung Ing-Büro": null, "Signalplanung-Jahr": null, "ÖPNV": null, "ÖPNV-Prio": null, "Vernetzung": null, "Koordinierung": null, "Koordinierung weitere LSA": null, "LSA-Komplexität": "mittel", "Kommentar Akteure": null }, "geometry": { "type": "Point", "coordinates": [ 9.20165, 49.178364 ] } },
{ "type": "Feature", "properties": { "Nr.": 12, "Bezeichnung": "L 1100 Neckartalstr. / Wimpfener Str.", "Gemarkung": "Heilbronn", "Detail": "49.182637, 9.201664", "Straßenbaulastträger": "Stadt Heilbronn", "Verkehrsrechtliche Anordnung": "Stadt Heilbronn", "Betrieb": "Stadt Heilbronn", "Ortsdurchfahrt": "außerorts", "Strat.-Nr.": "5, 6", "Projekte": "Überplanung IPAI", "Kommentar": "2027", "Anbindung": "Zentrale", "C-ITS-Bezug": "ja", "Signalbaufirma": "Yunex", "STG-Typ": null, "STG-Baujahr": null, "Signalplanung Ing-Büro": "Yunex", "Signalplanung-Jahr": null, "ÖPNV": "ja", "ÖPNV-Prio": "ja", "Vernetzung": null, "Koordinierung": "nein", "Koordinierung weitere LSA": null, "LSA-Komplexität": "mittel", "Kommentar Akteure": null }, "geometry": { "type": "Point", "coordinates": [ 9.201664, 49.182637 ] } },
{ "type": "Feature", "properties": { "Nr.": 13, "Bezeichnung": "A6 AS Heilbronn Untereisesheim / L 1100 Neckartalstr. (Süd)", "Gemarkung": "Heilbronn", "Detail": "49.184939, 9.201730", "Straßenbaulastträger": "Bund", "Verkehrsrechtliche Anordnung": "Autobahn GmbH (Bund)", "Betrieb": "Bund", "Ortsdurchfahrt": "außerorts", "Strat.-Nr.": "5, 6", "Projekte": "Überplanung IPAI", "Kommentar": "2027", "Anbindung": "Modem", "C-ITS-Bezug": "ja", "Signalbaufirma": "Yunex", "STG-Typ": null, "STG-Baujahr": "2019", "Signalplanung Ing-Büro": "gevas humberg & partner", "Signalplanung-Jahr": "2018", "ÖPNV": "nein", "ÖPNV-Prio": "nein", "Vernetzung": null, "Koordinierung": "ja", "Koordinierung weitere LSA": "nördl. Rampe", "LSA-Komplexität": "komplex", "Kommentar Akteure": "ViA6West" }, "geometry": { "type": "Point", "coordinates": [ 9.20173, 49.184939 ] } },
{ "type": "Feature", "properties": { "Nr.": 14, "Bezeichnung": "A6 AS Heilbronn Untereisesheim / L 1100 Neckartalstr. (Nord)", "Gemarkung": "Neckarsulm", "Detail": "49.187082, 9.202216", "Straßenbaulastträger": "Bund", "Verkehrsrechtliche Anordnung": "Autobahn GmbH (Bund)", "Betrieb": "Bund", "Ortsdurchfahrt": "außerorts", "Strat.-Nr.": "5, 6", "Projekte": "Überplanung IPAI", "Kommentar": null, "Anbindung": "Modem", "C-ITS-Bezug": "ja", "Signalbaufirma": "Yunex", "STG-Typ": null, "STG-Baujahr": "2019", "Signalplanung Ing-Büro": "gevas humberg & partner", "Signalplanung-Jahr": "2018", "ÖPNV": "nein", "ÖPNV-Prio": "nein", "Vernetzung": null, "Koordinierung": "ja", "Koordinierung weitere LSA": "südl.Rampe, L1100 / Austraße", "LSA-Komplexität": "komplex", "Kommentar Akteure": "ViA6West" }, "geometry": { "type": "Point", "coordinates": [ 9.202216, 49.187082 ] } },
{ "type": "Feature", "properties": { "Nr.": 15, "Bezeichnung": "L 1100 Neckartalstr. / Austr.", "Gemarkung": "Neckarsulm", "Detail": "49.189118, 9.203056", "Straßenbaulastträger": "RP Stuttgart (Land BW)", "Verkehrsrechtliche Anordnung": "LRA Heilbronn", "Betrieb": "LRA Heilbronn", "Ortsdurchfahrt": "außerorts", "Strat.-Nr.": "5, 6", "Projekte": null, "Kommentar": null, "Anbindung": "Modem", "C-ITS-Bezug": "ja", "Signalbaufirma": "Swarco", "STG-Typ": null, "STG-Baujahr": null, "Signalplanung Ing-Büro": null, "Signalplanung-Jahr": null, "ÖPNV": null, "ÖPNV-Prio": null, "Vernetzung": null, "Koordinierung": "ja?", "Koordinierung weitere LSA": null, "LSA-Komplexität": "mittel", "Kommentar Akteure": "6821-24, 2000090" }, "geometry": { "type": "Point", "coordinates": [ 9.203056, 49.189118 ] } },
{ "type": "Feature", "properties": { "Nr.": 16, "Bezeichnung": "L 1100 Neckartalstr. / Brückenstr.", "Gemarkung": "Neckarsulm", "Detail": "49.193419, 9.204876", "Straßenbaulastträger": "RP Stuttgart (Land BW)", "Verkehrsrechtliche Anordnung": "LRA Heilbronn", "Betrieb": "LRA Heilbronn", "Ortsdurchfahrt": "außerorts", "Strat.-Nr.": "5, 6", "Projekte": null, "Kommentar": null, "Anbindung": "Modem", "C-ITS-Bezug": "ja", "Signalbaufirma": "Swarco", "STG-Typ": null, "STG-Baujahr": null, "Signalplanung Ing-Büro": null, "Signalplanung-Jahr": null, "ÖPNV": null, "ÖPNV-Prio": null, "Vernetzung": null, "Koordinierung": "eher nein", "Koordinierung weitere LSA": null, "LSA-Komplexität": "komplex", "Kommentar Akteure": "6821-13, 2004408" }, "geometry": { "type": "Point", "coordinates": [ 9.204876, 49.193419 ] } },
{ "type": "Feature", "properties": { "Nr.": 17, "Bezeichnung": "L 1111 / Kelteräckerstr. / Fleiner Str.", "Gemarkung": "Untergruppenbach", "Detail": "49.100882, 9.260412", "Straßenbaulastträger": "RP Stuttgart (Land BW)", "Verkehrsrechtliche Anordnung": "LRA Heilbronn", "Betrieb": "LRA Heilbronn", "Ortsdurchfahrt": "außerorts", "Strat.-Nr.": "7, 8", "Projekte": null, "Kommentar": null, "Anbindung": "Modem", "C-ITS-Bezug": "nein", "Signalbaufirma": null, "STG-Typ": null, "STG-Baujahr": null, "Signalplanung Ing-Büro": null, "Signalplanung-Jahr": null, "ÖPNV": null, "ÖPNV-Prio": null, "Vernetzung": null, "Koordinierung": "nein", "Koordinierung weitere LSA": null, "LSA-Komplexität": "einfach", "Kommentar Akteure": null }, "geometry": { "type": "Point", "coordinates": [ 9.260412, 49.100882 ] } },
{ "type": "Feature", "properties": { "Nr.": 18, "Bezeichnung": "L 1111 / L2155 / Ilsfelder Str.", "Gemarkung": "Untergruppenbach", "Detail": "49.087802, 9.271421", "Straßenbaulastträger": "RP Stuttgart (Land BW)", "Verkehrsrechtliche Anordnung": "LRA Heilbronn", "Betrieb": "LRA Heilbronn", "Ortsdurchfahrt": "außerorts", "Strat.-Nr.": "7, 8", "Projekte": null, "Kommentar": null, "Anbindung": "Modem", "C-ITS-Bezug": "nein", "Signalbaufirma": "Swarco", "STG-Typ": null, "STG-Baujahr": null, "Signalplanung Ing-Büro": null, "Signalplanung-Jahr": null, "ÖPNV": null, "ÖPNV-Prio": null, "Vernetzung": null, "Koordinierung": "nein", "Koordinierung weitere LSA": null, "LSA-Komplexität": "komplex", "Kommentar Akteure": "6921-07, 2004619" }, "geometry": { "type": "Point", "coordinates": [ 9.271421, 49.087802 ] } },
{ "type": "Feature", "properties": { "Nr.": 19, "Bezeichnung": "L 1111 / Ausfahrt Feuerwehr", "Gemarkung": "Untergruppenbach", "Detail": "49.086324, 9.276550", "Straßenbaulastträger": "RP Stuttgart (Land BW)", "Verkehrsrechtliche Anordnung": "LRA Heilbronn", "Betrieb": "LRA Heilbronn", "Ortsdurchfahrt": "außerorts", "Strat.-Nr.": "7, 8", "Projekte": null, "Kommentar": "FW-Prio", "Anbindung": "Modem", "C-ITS-Bezug": "nein", "Signalbaufirma": "Yunex", "STG-Typ": null, "STG-Baujahr": null, "Signalplanung Ing-Büro": null, "Signalplanung-Jahr": null, "ÖPNV": null, "ÖPNV-Prio": null, "Vernetzung": null, "Koordinierung": "ja?", "Koordinierung weitere LSA": null, "LSA-Komplexität": "einfach", "Kommentar Akteure": "6921-23, ESVSUGB1" }, "geometry": { "type": "Point", "coordinates": [ 9.27655, 49.086324 ] } },
{ "type": "Feature", "properties": { "Nr.": 20, "Bezeichnung": "L 1111 / Mühlweg", "Gemarkung": "Untergruppenbach", "Detail": "49.085746, 9.279280", "Straßenbaulastträger": "RP Stuttgart (Land BW)", "Verkehrsrechtliche Anordnung": "LRA Heilbronn", "Betrieb": "LRA Heilbronn", "Ortsdurchfahrt": "außerorts", "Strat.-Nr.": "7, 8", "Projekte": null, "Kommentar": null, "Anbindung": "Modem", "C-ITS-Bezug": "nein", "Signalbaufirma": "AVT", "STG-Typ": null, "STG-Baujahr": null, "Signalplanung Ing-Büro": null, "Signalplanung-Jahr": null, "ÖPNV": null, "ÖPNV-Prio": null, "Vernetzung": null, "Koordinierung": "ja?", "Koordinierung weitere LSA": null, "LSA-Komplexität": "mittel", "Kommentar Akteure": "6921-22, 6816" }, "geometry": { "type": "Point", "coordinates": [ 9.27928, 49.085746 ] } },
{ "type": "Feature", "properties": { "Nr.": 21, "Bezeichnung": "A81 AS Heilbronn Untergruppenbach / L 1111 (West)", "Gemarkung": "Untergruppenbach", "Detail": "49.085345, 9.288729", "Straßenbaulastträger": "Bund", "Verkehrsrechtliche Anordnung": "Autobahn GmbH (Bund)", "Betrieb": "Bund", "Ortsdurchfahrt": "außerorts", "Strat.-Nr.": "7, 8", "Projekte": null, "Kommentar": null, "Anbindung": "Modem", "C-ITS-Bezug": "ja", "Signalbaufirma": "Swarco", "STG-Typ": "Actros", "STG-Baujahr": "2016", "Signalplanung Ing-Büro": "Ingenieurbüro Wolffram", "Signalplanung-Jahr": "2019", "ÖPNV": "nein", "ÖPNV-Prio": "nein", "Vernetzung": null, "Koordinierung": "ja", "Koordinierung weitere LSA": "östl. Rampe", "LSA-Komplexität": "komplex", "Kommentar Akteure": null }, "geometry": { "type": "Point", "coordinates": [ 9.288729, 49.085345 ] } },
{ "type": "Feature", "properties": { "Nr.": 22, "Bezeichnung": "A81 AS Heilbronn Untergruppenbach / L 1111 (Ost)", "Gemarkung": "Abstatt", "Detail": "49.085015, 9.291883", "Straßenbaulastträger": "Bund", "Verkehrsrechtliche Anordnung": "Autobahn GmbH (Bund)", "Betrieb": "Bund", "Ortsdurchfahrt": "außerorts", "Strat.-Nr.": "7, 8", "Projekte": null, "Kommentar": null, "Anbindung": "Modem", "C-ITS-Bezug": "ja", "Signalbaufirma": "Swarco", "STG-Typ": "Actros", "STG-Baujahr": "2016", "Signalplanung Ing-Büro": "Ingenieurbüro Wolffram", "Signalplanung-Jahr": "2019", "ÖPNV": "nein", "ÖPNV-Prio": "nein", "Vernetzung": null, "Koordinierung": "ja", "Koordinierung weitere LSA": "westl. Rampe", "LSA-Komplexität": "komplex", "Kommentar Akteure": null }, "geometry": { "type": "Point", "coordinates": [ 9.291883, 49.085015 ] } },
{ "type": "Feature", "properties": { "Nr.": 23, "Bezeichnung": "Hauptstr. / Abstatter Str.", "Gemarkung": "Abstatt", "Detail": "49.084769, 9.293739", "Straßenbaulastträger": "RP Stuttgart (Land BW)", "Verkehrsrechtliche Anordnung": "LRA Heilbronn", "Betrieb": "LRA Heilbronn", "Ortsdurchfahrt": "außerorts", "Strat.-Nr.": "7, 8", "Projekte": null, "Kommentar": null, "Anbindung": "Modem", "C-ITS-Bezug": "ja", "Signalbaufirma": "Swarco", "STG-Typ": null, "STG-Baujahr": null, "Signalplanung Ing-Büro": null, "Signalplanung-Jahr": null, "ÖPNV": null, "ÖPNV-Prio": null, "Vernetzung": null, "Koordinierung": "ja", "Koordinierung weitere LSA": null, "LSA-Komplexität": "komplex", "Kommentar Akteure": "6921-21, 2004987" }, "geometry": { "type": "Point", "coordinates": [ 9.293739, 49.084769 ] } },
{ "type": "Feature", "properties": { "Nr.": 24, "Bezeichnung": "L 1101 / K 2126", "Gemarkung": "Erlenbach", "Detail": "49.166758, 9.265210", "Straßenbaulastträger": "RP Stuttgart (Land BW)", "Verkehrsrechtliche Anordnung": "LRA Heilbronn", "Betrieb": "LRA Heilbronn", "Ortsdurchfahrt": "außerorts", "Strat.-Nr.": "9, 10, 11, 12, 13, 15, 16", "Projekte": null, "Kommentar": null, "Anbindung": "Modem", "C-ITS-Bezug": "ja", "Signalbaufirma": "Yunex", "STG-Typ": "??", "STG-Baujahr": "??", "Signalplanung Ing-Büro": "??", "Signalplanung-Jahr": "??", "ÖPNV": "??", "ÖPNV-Prio": "??", "Vernetzung": null, "Koordinierung": "??", "Koordinierung weitere LSA": null, "LSA-Komplexität": "mittel", "Kommentar Akteure": "6821-08" }, "geometry": { "type": "Point", "coordinates": [ 9.26521, 49.166758 ] } },
{ "type": "Feature", "properties": { "Nr.": 25, "Bezeichnung": "L 1036 / K 2126", "Gemarkung": "Weinsberg", "Detail": "49.161229, 9.295663", "Straßenbaulastträger": "RP Stuttgart (Land BW)", "Verkehrsrechtliche Anordnung": "LRA Heilbronn", "Betrieb": "LRA Heilbronn", "Ortsdurchfahrt": "außerorts", "Strat.-Nr.": "9, 10, 11, 12, 13", "Projekte": null, "Kommentar": null, "Anbindung": "Modem", "C-ITS-Bezug": "nein", "Signalbaufirma": "Yunex", "STG-Typ": "??", "STG-Baujahr": "??", "Signalplanung Ing-Büro": "??", "Signalplanung-Jahr": "??", "ÖPNV": "??", "ÖPNV-Prio": "??", "Vernetzung": null, "Koordinierung": "??", "Koordinierung weitere LSA": null, "LSA-Komplexität": "mittel", "Kommentar Akteure": "6821-05" }, "geometry": { "type": "Point", "coordinates": [ 9.295663, 49.161229 ] } },
{ "type": "Feature", "properties": { "Nr.": 26, "Bezeichnung": "B 39 / Haller Str.", "Gemarkung": "Weinsberg", "Detail": "49.149465, 9.299957", "Straßenbaulastträger": "RP Stuttgart (Land BW)", "Verkehrsrechtliche Anordnung": "LRA Heilbronn", "Betrieb": "LRA Heilbronn", "Ortsdurchfahrt": "außerorts", "Strat.-Nr.": "9, 10, 13", "Projekte": null, "Kommentar": "Zufluss", "Anbindung": "Modem", "C-ITS-Bezug": "nein", "Signalbaufirma": "Swarco", "STG-Typ": "ACTROS.alpha", "STG-Baujahr": "2023", "Signalplanung Ing-Büro": "Thomas und Partner", "Signalplanung-Jahr": "2024", "ÖPNV": "nein", "ÖPNV-Prio": "nein", "Vernetzung": null, "Koordinierung": "ja", "Koordinierung weitere LSA": null, "LSA-Komplexität": "mittel", "Kommentar Akteure": null }, "geometry": { "type": "Point", "coordinates": [ 9.299957, 49.149465 ] } },
{ "type": "Feature", "properties": { "Nr.": 27, "Bezeichnung": "B 39 / K 2113 Bahnhofstr.", "Gemarkung": "Weinsberg", "Detail": "49.150072, 9.299887", "Straßenbaulastträger": "RP Stuttgart (Land BW)", "Verkehrsrechtliche Anordnung": "LRA Heilbronn", "Betrieb": "LRA Heilbronn", "Ortsdurchfahrt": "außerorts", "Strat.-Nr.": "9, 10, 13", "Projekte": null, "Kommentar": "Zufluss", "Anbindung": "Modem", "C-ITS-Bezug": "nein", "Signalbaufirma": null, "STG-Typ": null, "STG-Baujahr": null, "Signalplanung Ing-Büro": null, "Signalplanung-Jahr": null, "ÖPNV": null, "ÖPNV-Prio": null, "Vernetzung": null, "Koordinierung": "ja", "Koordinierung weitere LSA": null, "LSA-Komplexität": "mittel", "Kommentar Akteure": null }, "geometry": { "type": "Point", "coordinates": [ 9.299887, 49.150072 ] } },
{ "type": "Feature", "properties": { "Nr.": 28, "Bezeichnung": "Heilbronner Str. / Weidachstr.", "Gemarkung": "Weinsberg", "Detail": "49.156211, 9.269494", "Straßenbaulastträger": "Stadt Weinsberg", "Verkehrsrechtliche Anordnung": "Stadt Weinsberg", "Betrieb": "Stadt Weinsberg", "Ortsdurchfahrt": "außerorts", "Strat.-Nr.": "11", "Projekte": null, "Kommentar": "Zufluss", "Anbindung": "Modem", "C-ITS-Bezug": "nein", "Signalbaufirma": null, "STG-Typ": null, "STG-Baujahr": null, "Signalplanung Ing-Büro": null, "Signalplanung-Jahr": null, "ÖPNV": null, "ÖPNV-Prio": null, "Vernetzung": null, "Koordinierung": "nein", "Koordinierung weitere LSA": null, "LSA-Komplexität": "mittel", "Kommentar Akteure": null }, "geometry": { "type": "Point", "coordinates": [ 9.269494, 49.156211 ] } },
{ "type": "Feature", "properties": { "Nr.": 29, "Bezeichnung": "B 39 / Maihaldenstr.", "Gemarkung": "Heilbronn", "Detail": "49.164373, 9.167069", "Straßenbaulastträger": "Stadt Heilbronn", "Verkehrsrechtliche Anordnung": "Stadt Heilbronn", "Betrieb": "Stadt Heilbronn", "Ortsdurchfahrt": "innerorts", "Strat.-Nr.": "14", "Projekte": null, "Kommentar": null, "Anbindung": "Modem", "C-ITS-Bezug": "nein", "Signalbaufirma": "Yunex", "STG-Typ": null, "STG-Baujahr": null, "Signalplanung Ing-Büro": "Yunex", "Signalplanung-Jahr": null, "ÖPNV": "ja", "ÖPNV-Prio": "ja", "Vernetzung": null, "Koordinierung": "nein", "Koordinierung weitere LSA": null, "LSA-Komplexität": "mittel", "Kommentar Akteure": "VVA - Programm; Götze: Kleine LSA, die Bereits Verkehrsabhängig ist und den Zufluss aus der Maihaldenstraße steuert" }, "geometry": { "type": "Point", "coordinates": [ 9.167069, 49.164373 ] } },
{ "type": "Feature", "properties": { "Nr.": 30, "Bezeichnung": "K 9562 Würzburger Str. / Burgundenstr.", "Gemarkung": "Heilbronn", "Detail": "49.164031, 9.179433", "Straßenbaulastträger": "Stadt Heilbronn", "Verkehrsrechtliche Anordnung": "Stadt Heilbronn", "Betrieb": "Stadt Heilbronn", "Ortsdurchfahrt": "innerorts", "Strat.-Nr.": "14", "Projekte": null, "Kommentar": null, "Anbindung": "Modem", "C-ITS-Bezug": "nein", "Signalbaufirma": "Yunex", "STG-Typ": null, "STG-Baujahr": null, "Signalplanung Ing-Büro": "Yunex", "Signalplanung-Jahr": null, "ÖPNV": "nein", "ÖPNV-Prio": "nein", "Vernetzung": null, "Koordinierung": "nein", "Koordinierung weitere LSA": null, "LSA-Komplexität": "einfach", "Kommentar Akteure": "VVA - Programm; Götze: Reine Fußgänger-LSA, Bedarfgesteuert" }, "geometry": { "type": "Point", "coordinates": [ 9.179433, 49.164031 ] } },
{ "type": "Feature", "properties": { "Nr.": 31, "Bezeichnung": "K 9562 Frankenbacher Str. / Römerstr.", "Gemarkung": "Heilbronn", "Detail": "49.168277, 9.197673", "Straßenbaulastträger": "Stadt Heilbronn", "Verkehrsrechtliche Anordnung": "Stadt Heilbronn", "Betrieb": "Stadt Heilbronn", "Ortsdurchfahrt": "innerorts", "Strat.-Nr.": "14", "Projekte": null, "Kommentar": null, "Anbindung": "Modem", "C-ITS-Bezug": "nein", "Signalbaufirma": "Yunex", "STG-Typ": null, "STG-Baujahr": null, "Signalplanung Ing-Büro": "Yunex", "Signalplanung-Jahr": null, "ÖPNV": "ja", "ÖPNV-Prio": "ja", "Vernetzung": null, "Koordinierung": "nein", "Koordinierung weitere LSA": null, "LSA-Komplexität": "mittel", "Kommentar Akteure": "Götze: Verkehrsabhängige Schaltungen bereits implementiert" }, "geometry": { "type": "Point", "coordinates": [ 9.197673, 49.168277 ] } },
{ "type": "Feature", "properties": { "Nr.": 32, "Bezeichnung": "K 9562 Frankenbacher Str. / Kirchbergstr.", "Gemarkung": "Heilbronn", "Detail": "49.168942, 9.200092", "Straßenbaulastträger": "Stadt Heilbronn", "Verkehrsrechtliche Anordnung": "Stadt Heilbronn", "Betrieb": "Stadt Heilbronn", "Ortsdurchfahrt": "innerorts", "Strat.-Nr.": "14", "Projekte": null, "Kommentar": null, "Anbindung": "Modem", "C-ITS-Bezug": "nein", "Signalbaufirma": "Yunex", "STG-Typ": null, "STG-Baujahr": null, "Signalplanung Ing-Büro": "Yunex", "Signalplanung-Jahr": null, "ÖPNV": "ja", "ÖPNV-Prio": "ja", "Vernetzung": null, "Koordinierung": "nein", "Koordinierung weitere LSA": null, "LSA-Komplexität": "mittel", "Kommentar Akteure": "Götze: Verkehrsabhängige Schaltungen bereits implementiert" }, "geometry": { "type": "Point", "coordinates": [ 9.200092, 49.168942 ] } },
{ "type": "Feature", "properties": { "Nr.": 33, "Bezeichnung": "K 9562 Brückenstr. / Böckinger Str. / Wimpfener Str.", "Gemarkung": "Heilbronn", "Detail": "49.168918, 9.202994", "Straßenbaulastträger": "Stadt Heilbronn", "Verkehrsrechtliche Anordnung": "Stadt Heilbronn", "Betrieb": "Stadt Heilbronn", "Ortsdurchfahrt": "innerorts", "Strat.-Nr.": "14", "Projekte": null, "Kommentar": null, "Anbindung": "Modem", "C-ITS-Bezug": "nein", "Signalbaufirma": "Yunex", "STG-Typ": null, "STG-Baujahr": null, "Signalplanung Ing-Büro": "Yunex", "Signalplanung-Jahr": null, "ÖPNV": "ja", "ÖPNV-Prio": "ja", "Vernetzung": null, "Koordinierung": "ja", "Koordinierung weitere LSA": "Brückenstr. / Obereisesheimer Str. / Karl-Wüst-Str.", "LSA-Komplexität": "mittel", "Kommentar Akteure": "Götze: LSA ist in der Koordinierung der Streckenzugs Karl-Wüst-Straße; Problem ist der Nachbarknoten über der Neckartalstraße, der überlastet ist. Mehr Zufluss nicht darstellbar" }, "geometry": { "type": "Point", "coordinates": [ 9.202994, 49.168918 ] } },
{ "type": "Feature", "properties": { "Nr.": 34, "Bezeichnung": "L 1101 Wilhelm-Hertz-Str. / Heiner-Fleischmann-Str.", "Gemarkung": "Neckarsulm", "Detail": "49.179286, 9.225577", "Straßenbaulastträger": "RP Stuttgart (Land BW)", "Verkehrsrechtliche Anordnung": "LRA Heilbronn", "Betrieb": "LRA Heilbronn", "Ortsdurchfahrt": "innerorts", "Strat.-Nr.": "15, 16", "Projekte": null, "Kommentar": null, "Anbindung": "Modem", "C-ITS-Bezug": "nein", "Signalbaufirma": "Swarco", "STG-Typ": "??", "STG-Baujahr": "??", "Signalplanung Ing-Büro": "??", "Signalplanung-Jahr": "??", "ÖPNV": "??", "ÖPNV-Prio": "??", "Vernetzung": null, "Koordinierung": "??", "Koordinierung weitere LSA": null, "LSA-Komplexität": "mittel", "Kommentar Akteure": "6821-12" }, "geometry": { "type": "Point", "coordinates": [ 9.225577, 49.179286 ] } },
{ "type": "Feature", "properties": { "Nr.": 35, "Bezeichnung": "L 1101 Wilhelm-Hertz-Str. / Konrad-Zuse-Str.", "Gemarkung": "Neckarsulm", "Detail": "49.180610, 9.234895", "Straßenbaulastträger": "RP Stuttgart (Land BW)", "Verkehrsrechtliche Anordnung": "LRA Heilbronn", "Betrieb": "LRA Heilbronn", "Ortsdurchfahrt": "außerorts", "Strat.-Nr.": "15, 16", "Projekte": null, "Kommentar": null, "Anbindung": "Modem", "C-ITS-Bezug": "nein", "Signalbaufirma": "Swarco", "STG-Typ": "Actros", "STG-Baujahr": "2018", "Signalplanung Ing-Büro": "Thomas und Partner", "Signalplanung-Jahr": "2018", "ÖPNV": "nein", "ÖPNV-Prio": "ja, Nr. 36", "Vernetzung": null, "Koordinierung": null, "Koordinierung weitere LSA": null, "LSA-Komplexität": "mittel", "Kommentar Akteure": "6821-14 // NSU-S04" }, "geometry": { "type": "Point", "coordinates": [ 9.234895, 49.18061 ] } },
{ "type": "Feature", "properties": { "Nr.": 36, "Bezeichnung": "L 1101 Wilhelm-Hertz-Str. / Werner-Heisenberg-Str. / Friedrich-Gaus-Str.", "Gemarkung": "Neckarsulm", "Detail": "49.180649, 9.238140", "Straßenbaulastträger": "RP Stuttgart (Land BW)", "Verkehrsrechtliche Anordnung": "LRA Heilbronn", "Betrieb": "LRA Heilbronn", "Ortsdurchfahrt": "außerorts", "Strat.-Nr.": "15, 16", "Projekte": null, "Kommentar": null, "Anbindung": "Modem", "C-ITS-Bezug": "nein", "Signalbaufirma": "Swarco", "STG-Typ": "Actros", "STG-Baujahr": "2018", "Signalplanung Ing-Büro": "Thomas und Partner", "Signalplanung-Jahr": "2017", "ÖPNV": "ja", "ÖPNV-Prio": "ja, Nr. 35", "Vernetzung": null, "Koordinierung": null, "Koordinierung weitere LSA": null, "LSA-Komplexität": "mittel", "Kommentar Akteure": "6821-15 // NSU-S05" }, "geometry": { "type": "Point", "coordinates": [ 9.23814, 49.180649 ] } },
{ "type": "Feature", "properties": { "Nr.": 37, "Bezeichnung": "L 1101 / K 2125 Binswanger Str. / Heilbronner Str.", "Gemarkung": "Erlenbach", "Detail": "49.171136, 9.259065", "Straßenbaulastträger": "RP Stuttgart (Land BW)", "Verkehrsrechtliche Anordnung": "LRA Heilbronn", "Betrieb": "LRA Heilbronn", "Ortsdurchfahrt": "außerorts", "Strat.-Nr.": "15, 16", "Projekte": null, "Kommentar": null, "Anbindung": "Modem", "C-ITS-Bezug": "ja", "Signalbaufirma": "AVT", "STG-Typ": "??", "STG-Baujahr": "??", "Signalplanung Ing-Büro": "Thomas und Partner", "Signalplanung-Jahr": "2022", "ÖPNV": "nein", "ÖPNV-Prio": "nein", "Vernetzung": null, "Koordinierung": "??", "Koordinierung weitere LSA": null, "LSA-Komplexität": "mittel", "Kommentar Akteure": "6821-07" }, "geometry": { "type": "Point", "coordinates": [ 9.259065, 49.171136 ] } },
{ "type": "Feature", "properties": { "Nr.": 38, "Bezeichnung": "L 1101 / Käppelesäcker", "Gemarkung": "Erlenbach", "Detail": "49.168654, 9.262625", "Straßenbaulastträger": "RP Stuttgart (Land BW)", "Verkehrsrechtliche Anordnung": "LRA Heilbronn", "Betrieb": "LRA Heilbronn", "Ortsdurchfahrt": "außerorts", "Strat.-Nr.": "15, 16", "Projekte": null, "Kommentar": null, "Anbindung": "Modem", "C-ITS-Bezug": "ja", "Signalbaufirma": "Swarco", "STG-Typ": "??", "STG-Baujahr": "??", "Signalplanung Ing-Büro": "??", "Signalplanung-Jahr": "??", "ÖPNV": "??", "ÖPNV-Prio": "??", "Vernetzung": null, "Koordinierung": "??", "Koordinierung weitere LSA": null, "LSA-Komplexität": "mittel", "Kommentar Akteure": "6821-27" }, "geometry": { "type": "Point", "coordinates": [ 9.262625, 49.168654 ] } },
{ "type": "Feature", "properties": { "Nr.": 39, "Bezeichnung": "A81 AS Neuenstadt aK / L1088 Öhringer Str. (Ost)", "Gemarkung": "Neuenstadt am Kocher", "Detail": "49.235938, 9.350988", "Straßenbaulastträger": "Bund", "Verkehrsrechtliche Anordnung": "Autobahn GmbH (Bund)", "Betrieb": "Bund", "Ortsdurchfahrt": "außerorts", "Strat.-Nr.": "keine", "Projekte": null, "Kommentar": null, "Anbindung": "Modem", "C-ITS-Bezug": "ja", "Signalbaufirma": "Yunex", "STG-Typ": null, "STG-Baujahr": "2013", "Signalplanung Ing-Büro": "??", "Signalplanung-Jahr": "2007", "ÖPNV": "nein", "ÖPNV-Prio": "nein", "Vernetzung": null, "Koordinierung": "??", "Koordinierung weitere LSA": "??", "LSA-Komplexität": "mittel", "Kommentar Akteure": null }, "geometry": { "type": "Point", "coordinates": [ 9.350988, 49.235938 ] } },
{ "type": "Feature", "properties": { "Nr.": 40, "Bezeichnung": "A81 AS Neuenstadt aK / L1088 Öhringer Str. (West)", "Gemarkung": "Neuenstadt am Kocher", "Detail": "49.237255, 9.347653", "Straßenbaulastträger": "Bund", "Verkehrsrechtliche Anordnung": "Autobahn GmbH (Bund)", "Betrieb": "Bund", "Ortsdurchfahrt": "außerorts", "Strat.-Nr.": "keine", "Projekte": null, "Kommentar": null, "Anbindung": "Modem", "C-ITS-Bezug": "ja", "Signalbaufirma": "Yunex", "STG-Typ": null, "STG-Baujahr": "2013", "Signalplanung Ing-Büro": "??", "Signalplanung-Jahr": "2007", "ÖPNV": "nein", "ÖPNV-Prio": "nein", "Vernetzung": null, "Koordinierung": "??", "Koordinierung weitere LSA": "??", "LSA-Komplexität": "mittel", "Kommentar Akteure": null }, "geometry": { "type": "Point", "coordinates": [ 9.347653, 49.237255 ] } },
{ "type": "Feature", "properties": { "Nr.": 41, "Bezeichnung": "L1088 Öhringer Str. / Industriestr.", "Gemarkung": "Neuenstadt am Kocher", "Detail": "49.238390, 9.345969", "Straßenbaulastträger": "RP Stuttgart (Land BW)", "Verkehrsrechtliche Anordnung": "LRA Heilbronn", "Betrieb": "LRA Heilbronn", "Ortsdurchfahrt": "außerorts", "Strat.-Nr.": "keine", "Projekte": null, "Kommentar": null, "Anbindung": "Modem", "C-ITS-Bezug": "ja", "Signalbaufirma": null, "STG-Typ": null, "STG-Baujahr": null, "Signalplanung Ing-Büro": null, "Signalplanung-Jahr": null, "ÖPNV": null, "ÖPNV-Prio": null, "Vernetzung": null, "Koordinierung": "ja", "Koordinierung weitere LSA": null, "LSA-Komplexität": "mittel", "Kommentar Akteure": null }, "geometry": { "type": "Point", "coordinates": [ 9.345969, 49.23839 ] } },
{ "type": "Feature", "properties": { "Nr.": 42, "Bezeichnung": "Brückenstr. / Rad-LSA", "Gemarkung": "Neckarsulm", "Detail": "49.189406, 9.216749", "Straßenbaulastträger": "RP Stuttgart (Land BW)", "Verkehrsrechtliche Anordnung": "LRA Heilbronn", "Betrieb": "LRA Heilbronn", "Ortsdurchfahrt": "innerorts", "Strat.-Nr.": "keine", "Projekte": "Mobipakt-MIV3", "Kommentar": "Rad-LSA", "Anbindung": "Modem", "C-ITS-Bezug": "ja", "Signalbaufirma": null, "STG-Typ": null, "STG-Baujahr": null, "Signalplanung Ing-Büro": null, "Signalplanung-Jahr": null, "ÖPNV": null, "ÖPNV-Prio": null, "Vernetzung": "über Land", "Koordinierung": "ja", "Koordinierung weitere LSA": null, "LSA-Komplexität": "einfach", "Kommentar Akteure": null }, "geometry": { "type": "Point", "coordinates": [ 9.216749, 49.189406 ] } },
{ "type": "Feature", "properties": { "Nr.": 43, "Bezeichnung": "L 1101 / Brückenstr. / Werftstr.", "Gemarkung": "Neckarsulm", "Detail": "49.189246, 9.218359", "Straßenbaulastträger": "RP Stuttgart (Land BW)", "Verkehrsrechtliche Anordnung": "LRA Heilbronn", "Betrieb": "LRA Heilbronn", "Ortsdurchfahrt": "innerorts", "Strat.-Nr.": "keine", "Projekte": "Mobipakt-MIV3", "Kommentar": null, "Anbindung": "Modem", "C-ITS-Bezug": "ja", "Signalbaufirma": null, "STG-Typ": null, "STG-Baujahr": null, "Signalplanung Ing-Büro": null, "Signalplanung-Jahr": null, "ÖPNV": null, "ÖPNV-Prio": null, "Vernetzung": null, "Koordinierung": "ja", "Koordinierung weitere LSA": null, "LSA-Komplexität": "komplex", "Kommentar Akteure": null }, "geometry": { "type": "Point", "coordinates": [ 9.218359, 49.189246 ] } },
{ "type": "Feature", "properties": { "Nr.": 44, "Bezeichnung": "B 27 / Römerstr. / Heuchlinger Str.", "Gemarkung": "Bad Friedrichshall", "Detail": "49.235309, 9.193596", "Straßenbaulastträger": "RP Stuttgart (Land BW)", "Verkehrsrechtliche Anordnung": "LRA Heilbronn", "Betrieb": "LRA Heilbronn", "Ortsdurchfahrt": "innerorts", "Strat.-Nr.": "1, 2", "Projekte": null, "Kommentar": null, "Anbindung": "Modem", "C-ITS-Bezug": "ja", "Signalbaufirma": null, "STG-Typ": null, "STG-Baujahr": null, "Signalplanung Ing-Büro": null, "Signalplanung-Jahr": null, "ÖPNV": null, "ÖPNV-Prio": null, "Vernetzung": null, "Koordinierung": "nein", "Koordinierung weitere LSA": null, "LSA-Komplexität": "mittel", "Kommentar Akteure": null }, "geometry": { "type": "Point", "coordinates": [ 9.193596, 49.235309 ] } },
{ "type": "Feature", "properties": { "Nr.": null, "Bezeichnung": null, "Gemarkung": null, "Detail": null, "Straßenbaulastträger": "Fahrtrichtung", "Verkehrsrechtliche Anordnung": "Tageswerte", "Betrieb": "Stundenwerte", "Ortsdurchfahrt": null, "Strat.-Nr.": "Jahr 2024", "Projekte": "Strategiebezug", "Kommentar": "Strategiebezug", "Anbindung": "Verkehrsmodell", "C-ITS-Bezug": null, "Signalbaufirma": null, "STG-Typ": null, "STG-Baujahr": null, "Signalplanung Ing-Büro": null, "Signalplanung-Jahr": null, "ÖPNV": null, "ÖPNV-Prio": null, "Vernetzung": null, "Koordinierung": null, "Koordinierung weitere LSA": null, "LSA-Komplexität": null, "Kommentar Akteure": null }, "geometry": null },
{ "type": "Feature", "properties": { "Nr.": null, "Bezeichnung": null, "Gemarkung": null, "Detail": null, "Straßenbaulastträger": "Osten", "Verkehrsrechtliche Anordnung": null, "Betrieb": null, "Ortsdurchfahrt": null, "Strat.-Nr.": null, "Projekte": "5, 6", "Kommentar": "indirekt", "Anbindung": null, "C-ITS-Bezug": null, "Signalbaufirma": null, "STG-Typ": null, "STG-Baujahr": null, "Signalplanung Ing-Büro": null, "Signalplanung-Jahr": null, "ÖPNV": null, "ÖPNV-Prio": null, "Vernetzung": null, "Koordinierung": null, "Koordinierung weitere LSA": null, "LSA-Komplexität": null, "Kommentar Akteure": null }, "geometry": null },
{ "type": "Feature", "properties": { "Nr.": null, "Bezeichnung": null, "Gemarkung": null, "Detail": null, "Straßenbaulastträger": "Osten", "Verkehrsrechtliche Anordnung": null, "Betrieb": null, "Ortsdurchfahrt": null, "Strat.-Nr.": null, "Projekte": "4", "Kommentar": "direkt", "Anbindung": null, "C-ITS-Bezug": null, "Signalbaufirma": null, "STG-Typ": null, "STG-Baujahr": null, "Signalplanung Ing-Büro": null, "Signalplanung-Jahr": null, "ÖPNV": null, "ÖPNV-Prio": null, "Vernetzung": null, "Koordinierung": null, "Koordinierung weitere LSA": null, "LSA-Komplexität": null, "Kommentar Akteure": null }, "geometry": null },
{ "type": "Feature", "properties": { "Nr.": null, "Bezeichnung": null, "Gemarkung": null, "Detail": null, "Straßenbaulastträger": "Norden", "Verkehrsrechtliche Anordnung": null, "Betrieb": null, "Ortsdurchfahrt": null, "Strat.-Nr.": null, "Projekte": "5", "Kommentar": "indirekt", "Anbindung": null, "C-ITS-Bezug": null, "Signalbaufirma": null, "STG-Typ": null, "STG-Baujahr": null, "Signalplanung Ing-Büro": null, "Signalplanung-Jahr": null, "ÖPNV": null, "ÖPNV-Prio": null, "Vernetzung": null, "Koordinierung": null, "Koordinierung weitere LSA": null, "LSA-Komplexität": null, "Kommentar Akteure": null }, "geometry": null },
{ "type": "Feature", "properties": { "Nr.": null, "Bezeichnung": null, "Gemarkung": null, "Detail": null, "Straßenbaulastträger": "Norden", "Verkehrsrechtliche Anordnung": null, "Betrieb": null, "Ortsdurchfahrt": null, "Strat.-Nr.": null, "Projekte": "5", "Kommentar": "indirekt", "Anbindung": null, "C-ITS-Bezug": null, "Signalbaufirma": null, "STG-Typ": null, "STG-Baujahr": null, "Signalplanung Ing-Büro": null, "Signalplanung-Jahr": null, "ÖPNV": null, "ÖPNV-Prio": null, "Vernetzung": null, "Koordinierung": null, "Koordinierung weitere LSA": null, "LSA-Komplexität": null, "Kommentar Akteure": null }, "geometry": null },
{ "type": "Feature", "properties": { "Nr.": null, "Bezeichnung": null, "Gemarkung": null, "Detail": null, "Straßenbaulastträger": "Osten", "Verkehrsrechtliche Anordnung": null, "Betrieb": null, "Ortsdurchfahrt": null, "Strat.-Nr.": null, "Projekte": "11, 12, 13", "Kommentar": "direkt", "Anbindung": null, "C-ITS-Bezug": null, "Signalbaufirma": null, "STG-Typ": null, "STG-Baujahr": null, "Signalplanung Ing-Büro": null, "Signalplanung-Jahr": null, "ÖPNV": null, "ÖPNV-Prio": null, "Vernetzung": null, "Koordinierung": null, "Koordinierung weitere LSA": null, "LSA-Komplexität": null, "Kommentar Akteure": null }, "geometry": null },
{ "type": "Feature", "properties": { "Nr.": null, "Bezeichnung": null, "Gemarkung": null, "Detail": null, "Straßenbaulastträger": "Norden + Süden", "Verkehrsrechtliche Anordnung": null, "Betrieb": null, "Ortsdurchfahrt": null, "Strat.-Nr.": null, "Projekte": "7, 8", "Kommentar": "indirekt", "Anbindung": null, "C-ITS-Bezug": null, "Signalbaufirma": null, "STG-Typ": null, "STG-Baujahr": null, "Signalplanung Ing-Büro": null, "Signalplanung-Jahr": null, "ÖPNV": null, "ÖPNV-Prio": null, "Vernetzung": null, "Koordinierung": null, "Koordinierung weitere LSA": null, "LSA-Komplexität": null, "Kommentar Akteure": null }, "geometry": null },
{ "type": "Feature", "properties": { "Nr.": null, "Bezeichnung": null, "Gemarkung": null, "Detail": null, "Straßenbaulastträger": "Westen + Osten", "Verkehrsrechtliche Anordnung": null, "Betrieb": null, "Ortsdurchfahrt": null, "Strat.-Nr.": null, "Projekte": "5", "Kommentar": "indirekt", "Anbindung": null, "C-ITS-Bezug": null, "Signalbaufirma": null, "STG-Typ": null, "STG-Baujahr": null, "Signalplanung Ing-Büro": null, "Signalplanung-Jahr": null, "ÖPNV": null, "ÖPNV-Prio": null, "Vernetzung": null, "Koordinierung": null, "Koordinierung weitere LSA": null, "LSA-Komplexität": null, "Kommentar Akteure": null }, "geometry": null },
{ "type": "Feature", "properties": { "Nr.": null, "Bezeichnung": null, "Gemarkung": null, "Detail": null, "Straßenbaulastträger": "Osten", "Verkehrsrechtliche Anordnung": null, "Betrieb": null, "Ortsdurchfahrt": null, "Strat.-Nr.": null, "Projekte": "14", "Kommentar": "indirekt", "Anbindung": null, "C-ITS-Bezug": null, "Signalbaufirma": null, "STG-Typ": null, "STG-Baujahr": null, "Signalplanung Ing-Büro": null, "Signalplanung-Jahr": null, "ÖPNV": null, "ÖPNV-Prio": null, "Vernetzung": null, "Koordinierung": null, "Koordinierung weitere LSA": null, "LSA-Komplexität": null, "Kommentar Akteure": null }, "geometry": null },
{ "type": "Feature", "properties": { "Nr.": null, "Bezeichnung": null, "Gemarkung": null, "Detail": null, "Straßenbaulastträger": "Osten", "Verkehrsrechtliche Anordnung": null, "Betrieb": null, "Ortsdurchfahrt": null, "Strat.-Nr.": null, "Projekte": "14", "Kommentar": "direkt", "Anbindung": null, "C-ITS-Bezug": null, "Signalbaufirma": null, "STG-Typ": null, "STG-Baujahr": null, "Signalplanung Ing-Büro": null, "Signalplanung-Jahr": null, "ÖPNV": null, "ÖPNV-Prio": null, "Vernetzung": null, "Koordinierung": null, "Koordinierung weitere LSA": null, "LSA-Komplexität": null, "Kommentar Akteure": null }, "geometry": null }
]
}
